NORAD_CAT_ID,OBJECT_NAME,OBJECT_TYPE,EPOCH,MEAN_MOTION,ECCENTRICITY,INCLINATION,RA_OF_ASC_NODE,ARG_OF_PERICENTER,MEAN_ANOMALY,BSTAR,MEAN_MOTION_DOT,MEAN_MOTION_DDOT,TLE_LINE0,TLE_LINE1,TLE_LINE2,SEMIMAJOR_AXIS,PERIOD,APOGEE,PERIGEE,DECAYED
56785.0,STARLINK-5931,PAYLOAD,2024-04-09 00:31:47,14.98331791,0.0002846,69.9986,308.6929,270.9458,89.1375,4.2086e-05,4.09e-06,0.0,0 STARLINK-5931,1 56785U 23078U   24100.02207367  .00000409  00000-0  42086-4 0  9992,2 56785  69.9986 308.6929 0002846 270.9458  89.1375 14.98331791 48137,6950.187,96.107,574.03,570.074,0.0
56785.0,STARLINK-5931,PAYLOAD,2024-04-09 06:56:19,14.98328545,0.0002842,69.9986,308.0196,271.2957,88.7877,2.8272e-06,-5.9e-07,0.0,0 STARLINK-5931,1 56785U 23078U   24100.28911655 -.00000059  00000-0  28272-5 0  9996,2 56785  69.9986 308.0196 0002842 271.2957  88.7877 14.98328545 48608,6950.197,96.107,574.038,570.087,0.0
56785.0,STARLINK-5931,PAYLOAD,2024-04-09 19:45:24,14.98329413,0.0002815,69.9986,306.6728,271.4383,88.6453,-3.1901e-05,-4.74e-06,0.0,0 STARLINK-5931,1 56785U 23078U   24100.82319707 -.00000474  00000-0 -31901-4 0  9990,2 56785  69.9986 306.6728 0002815 271.4383  88.6453 14.98329413 48680,6950.195,96.107,574.016,570.103,0.0
56785.0,STARLINK-5931,PAYLOAD,2024-04-09 22:57:40,14.98328744,0.0002837,69.9985,306.3362,271.2097,88.8737,-3.8107e-05,-5.48e-06,0.0,0 STARLINK-5931,1 56785U 23078U   24100.95671760 -.00000548  00000-0 -38107-4 0  9991,2 56785  69.9985 306.3362 0002837 271.2097  88.8737 14.98328744 48272,6950.197,96.107,574.034,570.09,0.0
56785.0,STARLINK-5931,PAYLOAD,2024-04-10 06:58:20,14.98329261,0.000282,69.9986,305.4946,270.8464,89.2372,-1.6388e-05,-2.89e-06,0.0,0 STARLINK-5931,1 56785U 23078U   24101.29051672 -.00000289  00000-0 -16388-4 0  9992,2 56785  69.9986 305.4946 0002820 270.8464  89.2372 14.98329261 48754,6950.195,96.107,574.02,570.1,0.0
56785.0,STARLINK-5931,PAYLOAD,2024-04-10 22:59:41,14.98331617,0.0002856,69.9984,303.8112,270.4738,89.6093,-8.3719e-06,-1.93e-06,0.0,0 STARLINK-5931,1 56785U 23078U   24101.95811416 -.00000193  00000-0 -83719-5 0  9992,2 56785  69.9984 303.8112 0002856 270.4738  89.6093 14.98331617 48851,6950.188,96.107,574.038,570.068,0.0
56785.0,STARLINK-5931,PAYLOAD,2024-04-11 13:24:53,14.98326565,0.0002922,69.998,302.2952,270.4968,89.5856,1.258e-05,5.7e-07,0.0,0 STARLINK-5931,1 56785U 23078U   24102.55895638  .00000057  00000-0  12580-4 0  9991,2 56785  69.9980 302.2952 0002922 270.4968  89.5856 14.98326565 48943,6950.204,96.107,574.099,570.038,0.0
56785.0,STARLINK-5931,PAYLOAD,2024-04-11 21:25:34,14.9832695,0.0002934,69.9981,301.454,271.4471,88.6351,-4.1392e-06,-1.42e-06,0.0,0 STARLINK-5931,1 56785U 23078U   24102.89275726 -.00000142  00000-0 -41392-5 0  9999,2 56785  69.9981 301.4540 0002934 271.4471  88.6351 14.98326950 48994,6950.202,96.107,574.107,570.028,0.0
56785.0,STARLINK-5931,PAYLOAD,2024-04-11 23:01:42,14.98327286,0.0002933,69.9981,301.2856,271.4806,88.6017,-4.2856e-07,-9.8e-07,0.0,0 STARLINK-5931,1 56785U 23078U   24102.95951704 -.00000098  00000-0 -42856-6 0  9990,2 56785  69.9981 301.2856 0002933 271.4806  88.6017 14.98327286 48579,6950.201,96.107,574.105,570.028,0.0
56785.0,STARLINK-5931,PAYLOAD,2024-04-12 11:50:48,14.98316568,0.0002898,69.9981,299.939,271.7087,88.374,-0.00015507,-1.942e-05,0.0,0 STARLINK-5931,1 56785U 23078U   24103.49361117 -.00001942  00000-0 -15507-3 0  9992,2 56785  69.9981 299.9390 0002898 271.7087  88.3740 14.98316568 48659,6950.234,96.108,574.114,570.085,0.0
56785.0,STARLINK-5931,PAYLOAD,2024-04-12 15:03:04,14.98312411,0.0002901,69.998,299.6023,271.6157,88.467,-0.00019344,-2.399e-05,0.0,0 STARLINK-5931,1 56785U 23078U   24103.62713621 -.00002399  00000-0 -19344-3 0  9998,2 56785  69.9980 299.6023 0002901 271.6157  88.4670 14.98312411 49107,6950.247,96.108,574.129,570.096,0.0
56785.0,STARLINK-5931,PAYLOAD,2024-04-12 23:03:45,14.98309392,0.0002918,69.998,298.7606,272.1912,87.8913,-0.00017378,-2.165e-05,0.0,0 STARLINK-5931,1 56785U 23078U   24103.96094137 -.00002165  00000-0 -17378-3 0  9995,2 56785  69.9980 298.7606 0002918 272.1912  87.8913 14.98309392 48721,6950.257,96.108,574.15,570.094,0.0
56785.0,STARLINK-5931,PAYLOAD,2024-04-13 11:52:49,14.98316806,0.0003538,69.9982,297.4139,268.2709,91.8045,-5.1096e-05,-7.03e-06,0.0,0 STARLINK-5931,1 56785U 23078U   24104.49501585 -.00000703  00000-0 -51096-4 0  9996,2 56785  69.9982 297.4139 0003538 268.2709  91.8045 14.98316806 48807,6950.234,96.108,574.558,569.64,0.0
56785.0,STARLINK-5931,PAYLOAD,2024-04-13 13:28:57,14.98320368,0.0003418,69.9981,297.2457,271.9404,88.1363,-7.9828e-06,-1.88e-06,0.0,0 STARLINK-5931,1 56785U 23078U   24104.56177324 -.00000188  00000-0 -79828-5 0  9995,2 56785  69.9981 297.2457 0003418 271.9404  88.1363 14.98320368 49246,6950.223,96.108,574.463,569.712,0.0
56785.0,STARLINK-5931,PAYLOAD,2024-04-13 19:53:29,14.9832665,0.0003227,69.9979,296.5726,274.8968,85.1823,4.6463e-05,4.61e-06,0.0,0 STARLINK-5931,1 56785U 23078U   24104.82881002  .00000461  00000-0  46463-4 0  9999,2 56785  69.9979 296.5726 0003227 274.8968  85.1823 14.98326650 48853,6950.203,96.107,574.311,569.825,0.0
56785.0,STARLINK-5931,PAYLOAD,2024-04-13 21:29:36,14.98334062,0.0002989,69.9977,296.4037,273.0283,87.0534,0.00012124,1.354e-05,0.0,0 STARLINK-5931,1 56785U 23078U   24104.89556283  .00001354  00000-0  12124-3 0  9994,2 56785  69.9977 296.4037 0002989 273.0283  87.0534 14.98334062 49295,6950.18,96.107,574.123,569.968,0.0
56785.0,STARLINK-5931,PAYLOAD,2024-04-13 23:05:44,14.98334887,0.000298,69.9978,296.2354,272.9818,87.1,0.00012939,1.451e-05,0.0,0 STARLINK-5931,1 56785U 23078U   24104.96232204  .00001451  00000-0  12939-3 0  9998,2 56785  69.9978 296.2354 0002980 272.9818  87.1000 14.98334887 48876,6950.178,96.107,574.114,569.972,0.0
56785.0,STARLINK-5931,PAYLOAD,2024-04-14 21:31:36,14.98339006,0.000297,69.9979,293.8783,279.4557,80.6266,0.00037811,4.422e-05,0.0,0 STARLINK-5931,1 56785U 23078U   24105.89695126  .00004422  00000-0  37811-3 0  9994,2 56785  69.9979 293.8783 0002970 279.4557  80.6266 14.98339006 49441,6950.165,96.106,574.094,569.966,0.0
56785.0,STARLINK-5931,PAYLOAD,2024-04-14 23:07:44,14.98339786,0.0002955,69.9979,293.7099,278.4205,81.6619,0.00037819,4.423e-05,0.0,0 STARLINK-5931,1 56785U 23078U   24105.96371022  .00004423  00000-0  37819-3 0  9997,2 56785  69.9979 293.7099 0002955 278.4205  81.6619 14.98339786 49024,6950.163,96.106,574.081,569.974,0.0
56785.0,STARLINK-5931,PAYLOAD,2024-04-15 11:56:49,14.98340634,0.000244,69.9988,292.3638,270.5268,89.5611,1.7392e-05,1.15e-06,0.0,0 STARLINK-5931,1 56785U 23078U   24106.49779708  .00000115  00000-0  17392-4 0  9998,2 56785  69.9988 292.3638 0002440 270.5268  89.5611 14.98340634 49101,6950.16,96.106,573.721,570.329,0.0
56785.0,STARLINK-5931,PAYLOAD,2024-04-15 13:32:57,14.98339938,0.0002449,69.9987,292.1954,268.573,91.5148,7.0403e-06,-9e-08,0.0,0 STARLINK-5931,1 56785U 23078U   24106.56455713 -.00000009  00000-0  70403-5 0  9999,2 56785  69.9987 292.1954 0002449 268.5730  91.5148 14.98339938 49540,6950.162,96.106,573.729,570.325,0.0
56785.0,STARLINK-5931,PAYLOAD,2024-04-15 21:33:38,14.98330359,0.0002669,69.9983,291.3537,270.5345,89.5508,-0.000114,-1.453e-05,0.0,0 STARLINK-5931,1 56785U 23078U   24106.89836482 -.00001453  00000-0 -11400-3 0  9996,2 56785  69.9983 291.3537 0002669 270.5345  89.5508 14.98330359 49593,6950.192,96.107,573.912,570.202,0.0
56785.0,STARLINK-5931,PAYLOAD,2024-04-15 23:09:46,14.98329202,0.000264,69.9985,291.1864,261.0787,99.0073,-0.00012445,-1.577e-05,0.0,0 STARLINK-5931,1 56785U 23078U   24106.96512508 -.00001577  00000-0 -12445-3 0  9991,2 56785  69.9985 291.1864 0002640 261.0787  99.0073 14.98329202 49172,6950.195,96.107,573.895,570.226,0.0
56785.0,STARLINK-5931,PAYLOAD,2024-04-16 11:58:50,14.98335305,0.000252,70.0004,289.8412,262.5457,97.5415,-0.00015183,-1.904e-05,0.0,0 STARLINK-5931,1 56785U 23078U   24107.49919996 -.00001904  00000-0 -15183-3 0  9998,2 56785  70.0004 289.8412 0002520 262.5457  97.5415 14.98335305 49250,6950.176,96.107,573.793,570.29,0.0
56785.0,STARLINK-5931,PAYLOAD,2024-04-16 13:34:58,14.98336253,0.0002518,70.0004,289.673,262.0149,98.0724,-0.00014148,-1.781e-05,0.0,0 STARLINK-5931,1 56785U 23078U   24107.56595875 -.00001781  00000-0 -14148-3 0  9995,2 56785  70.0004 289.6730 0002518 262.0149  98.0724 14.98336253 49691,6950.174,96.107,573.789,570.289,0.0
56785.0,STARLINK-5931,PAYLOAD,2024-04-16 19:59:30,14.98348368,0.0002603,69.9987,288.9994,260.8361,99.2504,-0.00012593,-1.596e-05,0.0,0 STARLINK-5931,1 56785U 23078U   24107.83298859 -.00001596  00000-0 -12593-3 0  9993,2 56785  69.9987 288.9994 0002603 260.8361  99.2504 14.98348368 49306,6950.136,96.106,573.81,570.192,0.0
56785.0,STARLINK-5931,PAYLOAD,2024-04-16 21:35:37,14.98358087,0.0002426,69.9988,288.8311,248.8017,111.2883,-0.00026633,-3.271e-05,0.0,0 STARLINK-5931,1 56785U 23078U   24107.89974489 -.00003271  00000-0 -26633-3 0  9991,2 56785  69.9988 288.8311 0002426 248.8017 111.2883 14.98358087 49748,6950.106,96.105,573.657,570.285,0.0
56785.0,STARLINK-5931,PAYLOAD,2024-04-17 12:00:51,14.98330154,0.0002324,69.9999,287.3148,256.1629,103.9272,-4.2061e-06,-1.43e-06,0.0,0 STARLINK-5931,1 56785U 23078U   24108.50059346 -.00000143  00000-0 -42061-5 0  9996,2 56785  69.9999 287.3148 0002324 256.1629 103.9272 14.98330154 49408,6950.192,96.107,573.673,570.442,0.0
56785.0,STARLINK-5931,PAYLOAD,2024-04-17 13:36:59,14.98328359,0.0002373,69.9996,287.1465,257.1675,102.9219,-2.4898e-05,-3.9e-06,0.0,0 STARLINK-5931,1 56785U 23078U   24108.56735511 -.00000390  00000-0 -24898-4 0  9998,2 56785  69.9996 287.1465 0002373 257.1675 102.9219 14.98328359 49843,6950.198,96.107,573.712,570.414,0.0
56785.0,STARLINK-5931,PAYLOAD,2024-04-17 20:01:32,14.98322986,0.0002482,69.9996,286.4747,263.4948,96.5928,-7.9969e-05,-1.047e-05,0.0,0 STARLINK-5931,1 56785U 23078U   24108.83440101 -.00001047  00000-0 -79969-4 0  9995,2 56785  69.9996 286.4747 0002482 263.4948  96.5928 14.98322986 49454,6950.215,96.107,573.805,570.355,0.0
